OBJECT_NAME,OBJECT_ID,EPOCH,MEAN_MOTION,ECCENTRICITY,INCLINATION,RA_OF_ASC_NODE,ARG_OF_PERICENTER,MEAN_ANOMALY,EPHEMERIS_TYPE,CLASSIFICATION_TYPE,NORAD_CAT_ID,ELEMENT_SET_NO,REV_AT_EPOCH,BSTAR,MEAN_MOTION_DOT,MEAN_MOTION_DDOT
KUZGTU 1 (RS47S),2023-091AV,2026-06-05T17:13:24.394944,15.29588956,.001224,97.5063,221.0831,133.4004,226.8257,0,U,57217,999,16262,.524E-3,.14995E-3,0
SONATE-2,2024-043Q,2026-06-05T09:17:04.658208,15.57809925,.0006708,97.5534,306.0669,233.9854,126.0780,0,U,59112,999,12605,.50424E-3,.37545E-3,0
MESAT1,2024-125G,2026-06-05T07:44:59.359200,15.61887563,.0008373,97.2304,13.5451,250.7624,109.2729,0,U,60209,999,10771,.57057E-3,.49723E-3,0
OOV-CUBE (TUBSAT-30),2024-128F,2026-06-05T11:27:36.061344,15.02719699,.0046084,61.9954,266.4024,131.1623,229.3458,0,U,60240,999,10435,.22604E-3,.2888E-4,0
COLIBRI-S (RS67S),2024-199M,2026-06-05T16:20:45.749184,15.47229762,.0006977,97.3005,30.4335,332.5107,27.5773,0,U,61746,999,13563,.5E-3,.25421E-3,0
HORS 3 (RS81S),2024-199U,2026-06-05T16:42:35.997408,15.54152944,.0004756,97.2989,32.3141,342.3859,17.7229,0,U,61753,999,13577,.57734E-3,.37566E-3,0
HORS 4 (RS82S),2024-199V,2026-06-05T16:34:18.950304,15.58578949,.0003565,97.2935,33.4378,334.8437,25.2645,0,U,61754,999,13585,.64066E-3,.49164E-3,0
ARCTICSAT 1 (RS74S),2024-199AD,2026-06-05T01:02:22.230240,16.02262718,.00061877,97.2851,39.2907,198.3612,161.7446,0,U,61762,999,13617,.12270297E-2,.70668E-2,.23827113E-3
SIT-2086,2024-199AF,2026-06-05T17:23:58.964064,15.52267432,.00048,97.2946,32.8598,315.1927,44.8938,0,U,61764,999,13265,.61341E-3,.37294E-3,0
HYPERVIEW 1G (RS66S),2024-199AP,2026-06-05T10:20:17.979360,15.72781514,.000211,97.2889,35.5812,312.1945,47.9139,0,U,61772,999,13282,.82953E-3,.112991E-2,0
ALTAIR (RS65S),2024-199AW,2026-06-05T17:14:10.048704,15.36784189,.0012335,97.3039,26.1456,356.0337,4.0807,0,U,61779,999,13535,.33864E-3,.12126E-3,0
ASRTU-1 (AO-123),2024-199AY,2026-06-05T16:42:32.208768,15.35504298,.0013557,97.3010,25.4708,357.8623,2.2560,0,U,61781,999,13216,.2562E-3,.8786E-4,0
SAMSAT-IONOSPHERE (RS75S),2024-199BB,2026-06-05T16:26:06.535104,15.56585770,.0006649,97.2956,32.3092,335.5365,24.5573,0,U,61784,999,13577,.65282E-3,.46528E-3,0
RTU MIREA 1 (RS51S),2024-199BC,2026-06-05T17:36:43.642080,15.59807790,.0006057,97.2947,33.1340,329.8250,30.2657,0,U,61785,999,13268,.72746E-3,.58589E-3,0
TEVEL2-4,2025-052D,2026-06-04T15:51:50.035392,15.34152369,.00042884,97.3926,52.0362,127.7510,232.4122,0,U,63213,999,6819,.65897715E-3,.21744E-3,0
TEVEL2-5,2025-052E,2026-06-05T11:06:33.638112,15.34015334,.0004115,97.3910,52.7894,126.1659,233.9965,0,U,63214,999,6831,.59244E-3,.1945E-3,0
TEVEL2-6,2025-052F,2026-06-04T16:36:41.612256,15.33948162,.0004351,97.3914,52.0022,129.5253,230.6375,0,U,63215,999,6819,.61616E-3,.20192E-3,0
TEVEL2-1,2025-052H,2026-06-05T10:25:58.837728,15.33457579,.0004006,97.3883,52.3839,136.2880,223.8680,0,U,63217,999,6829,.52119E-3,.16797E-3,0
TEVEL2-3,2025-052J,2026-06-04T15:31:17.786496,15.33483588,.00039786,97.3888,51.6166,138.3190,221.8356,0,U,63218,999,6817,.62480469E-3,.20177E-3,0
TEVEL2-2,2025-052K,2026-06-05T12:00:29.287008,15.33469790,.000399,97.3888,52.4514,137.6177,222.5374,0,U,63219,999,6830,.56579E-3,.18252E-3,0
TEVEL2-9,2025-052AD,2026-06-05T06:24:09.371232,15.31514886,.000665,97.3943,51.6191,165.5205,194.6228,0,U,63237,999,6820,.50636E-3,.15357E-3,0
TEVEL2-7,2025-052AE,2026-06-05T10:28:01.708896,15.31236048,.0006681,97.3949,51.7085,165.6962,194.4470,0,U,63238,999,6822,.492E-3,.14789E-3,0
TEVEL2-8,2025-052AF,2026-06-04T15:50:28.971456,15.31195553,.00065639,97.3951,50.9120,168.5625,191.5767,0,U,63239,999,6810,.59749177E-3,.17961E-3,0
INNOSAT 16 (RS92S7),2025-155C,2026-06-05T17:15:24.674976,15.25331348,.0009208,97.4563,123.8850,217.6827,142.3767,0,U,64878,999,7892,.26368E-3,.658E-4,0
GEOSCAN 6 (RS92S6),2025-155D,2026-06-05T17:40:44.474304,15.29928431,.0006809,97.4555,125.2467,202.6989,157.3951,0,U,64879,999,7901,.40095E-3,.11554E-3,0
GEOSCAN 1 (RS92S1),2025-155E,2026-06-05T17:50:35.140128,15.30506545,.0006749,97.4553,125.3918,202.3141,157.7806,0,U,64880,999,7902,.40478E-3,.11876E-3,0
239ALFEROV (RS61S),2025-155F,2026-06-05T17:30:01.863072,15.32622633,.0006381,97.4554,125.9009,198.6483,161.4526,0,U,64881,999,7905,.50906E-3,.15982E-3,0
GEOSCAN 2 (RS92S2),2025-155Q,2026-06-05T17:44:24.694080,15.30778937,.0006609,97.4552,125.5354,186.5398,173.5757,0,U,64890,999,7903,.40907E-3,.12105E-3,0
GEOSCAN 5 (RS92S5),2025-155R,2026-06-05T17:17:39.063264,15.32942324,.000504,97.4546,126.0254,201.6944,158.4085,0,U,64891,999,7906,.52079E-3,.16515E-3,0
GEOSCAN 4 (RS92S4),2025-155S,2026-06-05T16:56:30.535008,15.33089040,.0005099,97.4550,126.0558,202.4560,157.6459,0,U,64892,999,7906,.4947E-3,.15755E-3,0
