KUZGTU 1 (RS47S)        
1 57217U 23091AV  26156.71764346  .00014995  00000+0  52400-3 0  9996
2 57217  97.5063 221.0831 0012240 133.4004 226.8257 15.29588956162622
SONATE-2                
1 59112U 24043Q   26156.38685947  .00037545  00000+0  50424-3 0  9992
2 59112  97.5534 306.0669 0006708 233.9854 126.0780 15.57809925126057
MESAT1                  
1 60209U 24125G   26156.32290925  .00049723  00000+0  57057-3 0  9994
2 60209  97.2304  13.5451 0008373 250.7624 109.2729 15.61887563107716
OOV-CUBE (TUBSAT-30)    
1 60240U 24128F   26156.47750071  .00002888  00000+0  22604-3 0  9992
2 60240  61.9954 266.4024 0046084 131.1623 229.3458 15.02719699104356
COLIBRI-S (RS67S)       
1 61746U 24199M   26156.68108506  .00025421  00000+0  50000-3 0  9994
2 61746  97.3005  30.4335 0006977 332.5107  27.5773 15.47229762135632
HORS 3 (RS81S)          
1 61753U 24199U   26156.69624997  .00037566  00000+0  57734-3 0  9994
2 61753  97.2989  32.3141 0004756 342.3859  17.7229 15.54152944135779
HORS 4 (RS82S)          
1 61754U 24199V   26156.69049711  .00049164  00000+0  64066-3 0  9993
2 61754  97.2935  33.4378 0003565 334.8437  25.2645 15.58578949135856
ARCTICSAT 1 (RS74S)     
1 61762U 24199AD  26156.04331285  .00706680  23827-3  12270-2 0  9999
2 61762  97.2851  39.2907 0006187 198.3612 161.7446 16.02262718136170
SIT-2086                
1 61764U 24199AF  26156.72498801  .00037294  00000+0  61341-3 0  9990
2 61764  97.2946  32.8598 0004800 315.1927  44.8938 15.52267432132658
HYPERVIEW 1G (RS66S)    
1 61772U 24199AP  26156.43076365  .00112991  00000+0  82953-3 0  9994
2 61772  97.2889  35.5812 0002110 312.1945  47.9139 15.72781514132821
ALTAIR (RS65S)          
1 61779U 24199AW  26156.71817186  .00012126  00000+0  33864-3 0  9992
2 61779  97.3039  26.1456 0012335 356.0337   4.0807 15.36784189135356
ASRTU-1 (AO-123)        
1 61781U 24199AY  26156.69620612  .00008786  00000+0  25620-3 0  9996
2 61781  97.3010  25.4708 0013557 357.8623   2.2560 15.35504298132166
SAMSAT-IONOSPHERE (RS7*)
1 61784U 24199BB  26156.68479786  .00046528  00000+0  65282-3 0  9996
2 61784  97.2956  32.3092 0006649 335.5365  24.5573 15.56585770135778
RTU MIREA 1 (RS51S)     
1 61785U 24199BC  26156.73383845  .00058589  00000+0  72746-3 0  9996
2 61785  97.2947  33.1340 0006057 329.8250  30.2657 15.59807790132682
TEVEL2-4                
1 63213U 25052D   26155.66099578  .00021744  00000+0  65898-3 0  9994
2 63213  97.3926  52.0362 0004288 127.7510 232.4122 15.34152369 68195
TEVEL2-5                
1 63214U 25052E   26156.46288933  .00019450  00000+0  59244-3 0  9998
2 63214  97.3910  52.7894 0004115 126.1659 233.9965 15.34015334 68317
TEVEL2-6                
1 63215U 25052F   26155.69214829  .00020192  00000+0  61616-3 0  9997
2 63215  97.3914  52.0022 0004351 129.5253 230.6375 15.33948162 68195
TEVEL2-1                
1 63217U 25052H   26156.43470877  .00016797  00000+0  52119-3 0  9993
2 63217  97.3883  52.3839 0004006 136.2880 223.8680 15.33457579 68290
TEVEL2-3                
1 63218U 25052J   26155.64673364  .00020177  00000+0  62480-3 0  9991
2 63218  97.3888  51.6166 0003978 138.3190 221.8356 15.33483588 68179
TEVEL2-2                
1 63219U 25052K   26156.50033897  .00018252  00000+0  56579-3 0  9992
2 63219  97.3888  52.4514 0003990 137.6177 222.5374 15.33469790 68309
TEVEL2-9                
1 63237U 25052AD  26156.26677513  .00015357  00000+0  50636-3 0  9995
2 63237  97.3943  51.6191 0006650 165.5205 194.6228 15.31514886 68202
TEVEL2-7                
1 63238U 25052AE  26156.43613089  .00014789  00000+0  49200-3 0  9996
2 63238  97.3949  51.7085 0006681 165.6962 194.4470 15.31236048 68227
TEVEL2-8                
1 63239U 25052AF  26155.66005754  .00017961  00000+0  59749-3 0  9999
2 63239  97.3951  50.9120 0006563 168.5625 191.5767 15.31195553 68108
INNOSAT 16 (RS92S7)     
1 64878U 25155C   26156.71903559  .00006580  00000+0  26368-3 0  9996
2 64878  97.4563 123.8850 0009208 217.6827 142.3767 15.25331348 78929
GEOSCAN 6 (RS92S6)      
1 64879U 25155D   26156.73662586  .00011554  00000+0  40095-3 0  9991
2 64879  97.4555 125.2467 0006809 202.6989 157.3951 15.29928431 79019
GEOSCAN 1 (RS92S1)      
1 64880U 25155E   26156.74346227  .00011876  00000+0  40478-3 0  9997
2 64880  97.4553 125.3918 0006749 202.3141 157.7806 15.30506545 79025
239ALFEROV (RS61S)      
1 64881U 25155F   26156.72918823  .00015982  00000+0  50906-3 0  9992
2 64881  97.4554 125.9009 0006381 198.6483 161.4526 15.32622633 79055
GEOSCAN 2 (RS92S2)      
1 64890U 25155Q   26156.73917470  .00012105  00000+0  40907-3 0  9994
2 64890  97.4552 125.5354 0006609 186.5398 173.5757 15.30778937 79031
GEOSCAN 5 (RS92S5)      
1 64891U 25155R   26156.72059101  .00016515  00000+0  52079-3 0  9994
2 64891  97.4546 126.0254 0005040 201.6944 158.4085 15.32942324 79068
GEOSCAN 4 (RS92S4)      
1 64892U 25155S   26156.70590897  .00015755  00000+0  49470-3 0  9991
2 64892  97.4550 126.0558 0005099 202.4560 157.6459 15.33089040 79062
